{"type": "FeatureCollection", "features": [ {"type": "Feature", "properties": {"norad_id": 38173, "name": "FENGYUN 1C DEB", "group": "fengyun-1c-debris", "lat": 55.3486794760801, "lon": -112.18178202782353, "alt_km": 650.2964119287026, "timestamp": "2025-12-26T05:31:12.797137+00:00", "meta": {"OBJECT_NAME": "FENGYUN 1C DEB", "OBJECT_ID": "1999-025ERW", "EPOCH": "2025-12-25T22:34:52.894272", "MEAN_MOTION": 14.372448, "ECCENTRICITY": 0.01633897, "INCLINATION": 98.9989, "RA_OF_ASC_NODE": 260.77, "ARG_OF_PERICENTER": 74.007, "MEAN_ANOMALY": 287.9045, "EPHEMERIS_TYPE": 0, "CLASSIFICATION_TYPE": "U", "NORAD_CAT_ID": 38173, "ELEMENT_SET_NO": 999, "REV_AT_EPOCH": 60833, "BSTAR": 0.00095572959, "MEAN_MOTION_DOT": 3.27e-05, "MEAN_MOTION_DDOT": 0}, "tle": {"line1": "1 38173U 99025ERW 25359.94088998  .00003270  00000+0  95573-3 0  9999", "line2": "2 38173  98.9989 260.7700 0163389  74.0070 287.9045 14.37244800608334"}}, "geometry": {"type": "Point", "coordinates": [-112.18178202782353, 55.3486794760801]}}, {"type": "Feature", "properties": {"norad_id": 38493, "name": "FENGYUN 1C DEB", "group": "fengyun-1c-debris", "lat": -48.648398605149964, "lon": 128.27991716978, "alt_km": 734.4273183778332, "timestamp": "2025-12-26T05:31:12.797147+00:00", "meta": {"OBJECT_NAME": "FENGYUN 1C DEB", "OBJECT_ID": "1999-025ESC", "EPOCH": "2025-12-24T15:22:34.770144", "MEAN_MOTION": 13.62325657, "ECCENTRICITY": 0.0426499, "INCLINATION": 99.0811, "RA_OF_ASC_NODE": 317.2644, "ARG_OF_PERICENTER": 214.2479, "MEAN_ANOMALY": 143.0477, "EPHEMERIS_TYPE": 0, "CLASSIFICATION_TYPE": "U", "NORAD_CAT_ID": 38493, "ELEMENT_SET_NO": 999, "REV_AT_EPOCH": 56660, "BSTAR": 0.00019268039, "MEAN_MOTION_DOT": 2.34e-06, "MEAN_MOTION_DDOT": 0}, "tle": {"line1": "1 38493U 99025ESC 25358.64068021  .00000234  00000+0  19268-3 0  9999", "line2": "2 38493  99.0811 317.2644 0426499 214.2479 143.0477 13.62325657566606"}}, "geometry": {"type": "Point", "coordinates": [128.27991716978, -48.648398605149964]}}, {"type": "Feature", "properties": {"norad_id": 38494, "name": "FENGYUN 1C DEB", "group": "fengyun-1c-debris", "lat": -69.57509994331905, "lon": -27.07044032552737, "alt_km": 689.2477966326442, "timestamp": "2025-12-26T05:31:12.797157+00:00", "meta": {"OBJECT_NAME": "FENGYUN 1C DEB", "OBJECT_ID": "1999-025ESD", "EPOCH": "2025-12-24T02:24:03.074112", "MEAN_MOTION": 14.00504572, "ECCENTRICITY": 0.03833507, "INCLINATION": 98.4389, "RA_OF_ASC_NODE": 307.463, "ARG_OF_PERICENTER": 337.3093, "MEAN_ANOMALY": 21.1511, "EPHEMERIS_TYPE": 0, "CLASSIFICATION_TYPE": "U", "NORAD_CAT_ID": 38494, "ELEMENT_SET_NO": 999, "REV_AT_EPOCH": 7313, "BSTAR": 0.0049089492, "MEAN_MOTION_DOT": 0.00013814, "MEAN_MOTION_DDOT": 0}, "tle": {"line1": "1 38494U 99025ESD 25358.10003558  .00013814  00000+0  49089-2 0  9996", "line2": "2 38494  98.4389 307.4630 0383350 337.3093  21.1511 14.00504572 73137"}}, "geometry": {"type": "Point", "coordinates": [-27.07044032552737, -69.57509994331905]}}, {"type": "Feature", "properties": {"norad_id": 38495, "name": "FENGYUN 1C DEB", "group": "fengyun-1c-debris", "lat": -16.934205720350917, "lon": 18.751418767395297, "alt_km": 1097.7803066117567, "timestamp": "2025-12-26T05:31:12.797167+00:00", "meta": {"OBJECT_NAME": "FENGYUN 1C DEB", "OBJECT_ID": "1999-025ESE", "EPOCH": "2025-12-02T06:20:41.771904", "MEAN_MOTION": 13.69106573, "ECCENTRICITY": 0.0252581, "INCLINATION": 99.1709, "RA_OF_ASC_NODE": 353.1036, "ARG_OF_PERICENTER": 165.9119, "MEAN_ANOMALY": 194.9245, "EPHEMERIS_TYPE": 0, "CLASSIFICATION_TYPE": "U", "NORAD_CAT_ID": 38495, "ELEMENT_SET_NO": 999, "REV_AT_EPOCH": 60969, "BSTAR": 0.0025866, "MEAN_MOTION_DOT": 2.759e-05, "MEAN_MOTION_DDOT": 0}, "tle": {"line1": "1 38495U 99025ESE 25336.26437236  .00002759  00000+0  25866-2 0  9997", "line2": "2 38495  99.1709 353.1036 0252581 165.9119 194.9245 13.69106573609697"}}, "geometry": {"type": "Point", "coordinates": [18.751418767395297, -16.934205720350917]}}, {"type": "Feature", "properties": {"norad_id": 38496, "name": "FENGYUN 1C DEB", "group": "fengyun-1c-debris", "lat": -70.45829185099875, "lon": 35.372600073227005, "alt_km": 823.7561275035205, "timestamp": "2025-12-26T05:31:12.797177+00:00", "meta": {"OBJECT_NAME": "FENGYUN 1C DEB", "OBJECT_ID": "1999-025ESF", "EPOCH": "2025-12-19T06:57:41.678208", "MEAN_MOTION": 14.10020272, "ECCENTRICITY": 0.0077623, "INCLINATION": 98.7629, "RA_OF_ASC_NODE": 2.8558, "ARG_OF_PERICENTER": 347.946, "MEAN_ANOMALY": 11.9851, "EPHEMERIS_TYPE": 0, "CLASSIFICATION_TYPE": "U", "NORAD_CAT_ID": 38496, "ELEMENT_SET_NO": 999, "REV_AT_EPOCH": 81113, "BSTAR": 0.00061884, "MEAN_MOTION_DOT": 1.08e-05, "MEAN_MOTION_DDOT": 0}, "tle": {"line1": "1 38496U 99025ESF 25353.29006572  .00001080  00000+0  61884-3 0  9992", "line2": "2 38496  98.7629   2.8558 0077623 347.9460  11.9851 14.10020272811137"}}, "geometry": {"type": "Point", "coordinates": [35.372600073227005, -70.45829185099875]}}, {"type": "Feature", "properties": {"norad_id": 38498, "name": "FENGYUN 1C DEB", "group": "fengyun-1c-debris", "lat": 3.4210734484215855, "lon": 18.439086195559245, "alt_km": 933.3081525583812, "timestamp": "2025-12-26T05:31:12.797187+00:00", "meta": {"OBJECT_NAME": "FENGYUN 1C DEB", "OBJECT_ID": "1999-025ESH", "EPOCH": "2025-12-22T07:03:50.461056", "MEAN_MOTION": 12.96639906, "ECCENTRICITY": 0.05557542, "INCLINATION": 99.6983, "RA_OF_ASC_NODE": 15.5173, "ARG_OF_PERICENTER": 50.4291, "MEAN_ANOMALY": 314.4564, "EPHEMERIS_TYPE": 0, "CLASSIFICATION_TYPE": "U", "NORAD_CAT_ID": 38498, "ELEMENT_SET_NO": 999, "REV_AT_EPOCH": 53867, "BSTAR": 0.0023471265, "MEAN_MOTION_DOT": 1.336e-05, "MEAN_MOTION_DDOT": 0}, "tle": {"line1": "1 38498U 99025ESH 25356.29433404  .00001336  00000+0  23471-2 0  9998", "line2": "2 38498  99.6983  15.5173 0555754  50.4291 314.4564 12.96639906538679"}}, "geometry": {"type": "Point", "coordinates": [18.439086195559245, 3.4210734484215855]}}, {"type": "Feature", "properties": {"norad_id": 38510, "name": "FENGYUN 1C DEB", "group": "fengyun-1c-debris", "lat": 52.88325465638726, "lon": -2.747300636025899, "alt_km": 806.1824328377343, "timestamp": "2025-12-26T05:31:12.797197+00:00", "meta": {"OBJECT_NAME": "FENGYUN 1C DEB", "OBJECT_ID": "1999-025ESV", "EPOCH": "2025-12-23T07:36:20.803680", "MEAN_MOTION": 14.13344604, "ECCENTRICITY": 0.00959048, "INCLINATION": 98.6029, "RA_OF_ASC_NODE": 5.9908, "ARG_OF_PERICENTER": 120.5823, "MEAN_ANOMALY": 240.4854, "EPHEMERIS_TYPE": 0, "CLASSIFICATION_TYPE": "U", "NORAD_CAT_ID": 38510, "ELEMENT_SET_NO": 999, "REV_AT_EPOCH": 88819, "BSTAR": 0.00051230803, "MEAN_MOTION_DOT": 9.63e-06, "MEAN_MOTION_DDOT": 0}, "tle": {"line1": "1 38510U 99025ESV 25357.31690745  .00000963  00000+0  51231-3 0  9991", "line2": "2 38510  98.6029   5.9908 0095904 120.5823 240.4854 14.13344604888193"}}, "geometry": {"type": "Point", "coordinates": [-2.747300636025899, 52.88325465638726]}}, {"type": "Feature", "properties": {"norad_id": 38512, "name": "FENGYUN 1C DEB", "group": "fengyun-1c-debris", "lat": -14.421952985990693, "lon": -117.42089860238674, "alt_km": 966.5920746121055, "timestamp": "2025-12-26T05:31:12.797207+00:00", "meta": {"OBJECT_NAME": "FENGYUN 1C DEB", "OBJECT_ID": "1999-025ESX", "EPOCH": "2025-12-10T03:21:08.986176", "MEAN_MOTION": 13.7397021, "ECCENTRICITY": 0.02264501, "INCLINATION": 98.3804, "RA_OF_ASC_NODE": 226.2794, "ARG_OF_PERICENTER": 112.1956, "MEAN_ANOMALY": 250.339, "EPHEMERIS_TYPE": 0, "CLASSIFICATION_TYPE": "U", "NORAD_CAT_ID": 38512, "ELEMENT_SET_NO": 999, "REV_AT_EPOCH": 59534, "BSTAR": 0.0014232555, "MEAN_MOTION_DOT": 1.573e-05, "MEAN_MOTION_DDOT": 0}, "tle": {"line1": "1 38512U 99025ESX 25344.13968734  .00001573  00000+0  14233-2 0  9993", "line2": "2 38512  98.3804 226.2794 0226450 112.1956 250.3390 13.73970210595340"}}, "geometry": {"type": "Point", "coordinates": [-117.42089860238674, -14.421952985990693]}}, {"type": "Feature", "properties": {"norad_id": 38514, "name": "FENGYUN 1C DEB", "group": "fengyun-1c-debris", "lat": -52.8416766626265, "lon": 39.30864362052204, "alt_km": 672.0849882030961, "timestamp": "2025-12-26T05:31:12.797217+00:00", "meta": {"OBJECT_NAME": "FENGYUN 1C DEB", "OBJECT_ID": "1999-025ESZ", "EPOCH": "2025-12-25T00:56:07.133280", "MEAN_MOTION": 14.16200659, "ECCENTRICITY": 0.02694365, "INCLINATION": 98.0544, "RA_OF_ASC_NODE": 27.4614, "ARG_OF_PERICENTER": 337.8346, "MEAN_ANOMALY": 21.1356, "EPHEMERIS_TYPE": 0, "CLASSIFICATION_TYPE": "U", "NORAD_CAT_ID": 38514, "ELEMENT_SET_NO": 999, "REV_AT_EPOCH": 88170, "BSTAR": 0.0072966296, "MEAN_MOTION_DOT": 0.00020596, "MEAN_MOTION_DDOT": 0}, "tle": {"line1": "1 38514U 99025ESZ 25359.03897145  .00020596  00000+0  72966-2 0  9990", "line2": "2 38514  98.0544  27.4614 0269436 337.8346  21.1356 14.16200659881707"}}, "geometry": {"type": "Point", "coordinates": [39.30864362052204, -52.8416766626265]}}, {"type": "Feature", "properties": {"norad_id": 38516, "name": "FENGYUN 1C DEB", "group": "fengyun-1c-debris", "lat": 74.22348588046582, "lon": -47.89288705705285, "alt_km": 692.0523311910656, "timestamp": "2025-12-26T05:31:12.797227+00:00", "meta": {"OBJECT_NAME": "FENGYUN 1C DEB", "OBJECT_ID": "1999-025ETB", "EPOCH": "2025-12-24T16:19:45.991488", "MEAN_MOTION": 14.34056403, "ECCENTRICITY": 0.0111753, "INCLINATION": 98.4438, "RA_OF_ASC_NODE": 342.3136, "ARG_OF_PERICENTER": 90.1675, "MEAN_ANOMALY": 271.2316, "EPHEMERIS_TYPE": 0, "CLASSIFICATION_TYPE": "U", "NORAD_CAT_ID": 38516, "ELEMENT_SET_NO": 999, "REV_AT_EPOCH": 85044, "BSTAR": 0.00010995262, "MEAN_MOTION_DOT": 2.86e-06, "MEAN_MOTION_DDOT": 0}, "tle": {"line1": "1 38516U 99025ETB 25358.68039342  .00000286  00000+0  10995-3 0  9998", "line2": "2 38516  98.4438 342.3136 0111753  90.1675 271.2316 14.34056403850442"}}, "geometry": {"type": "Point", "coordinates": [-47.89288705705285, 74.22348588046582]}}]}